NORAD_CAT_ID,OBJECT_NAME,OBJECT_TYPE,EPOCH,MEAN_MOTION,ECCENTRICITY,INCLINATION,RA_OF_ASC_NODE,ARG_OF_PERICENTER,MEAN_ANOMALY,BSTAR,MEAN_MOTION_DOT,MEAN_MOTION_DDOT,TLE_LINE0,TLE_LINE1,TLE_LINE2,SEMIMAJOR_AXIS,PERIOD,APOGEE,PERIGEE,DECAYED
52622.0,STARLINK-4008,PAYLOAD,2022-10-13 20:07:58,15.08846878,0.0001561,53.2177,103.4931,75.4947,284.6218,0.00033016,4.971e-05,0.0,0 STARLINK-4008,1 52622U 22052AA  22286.83887561  .00004971  00000-0  33016-3 0  9991,2 52622  53.2177 103.4931 0001561  75.4947 284.6218 15.08846878 23151,6917.859,95.437,540.804,538.644,0.0
52622.0,STARLINK-4008,PAYLOAD,2022-10-13 23:18:44,15.0885321,0.0001489,53.2177,102.8984,73.2288,286.8867,0.00043317,6.615e-05,0.0,0 STARLINK-4008,1 52622U 22052AA  22286.97135349  .00006615  00000-0  43317-3 0  9998,2 52622  53.2177 102.8984 0001489  73.2288 286.8867 15.08853210 23551,6917.84,95.437,540.735,538.675,0.0
52622.0,STARLINK-4008,PAYLOAD,2022-10-14 18:23:22,15.08847493,0.0001452,53.2181,99.3299,75.7949,284.3204,0.00011727,1.579e-05,0.0,0 STARLINK-4008,1 52622U 22052AA  22287.76622909  .00001579  00000-0  11727-3 0  9993,2 52622  53.2181  99.3299 0001452  75.7949 284.3204 15.08847493 23673,6917.857,95.437,540.727,538.7180000000002,0.0
52622.0,STARLINK-4008,PAYLOAD,2022-10-15 11:52:36,15.08839845,0.0001523,53.2184,96.0594,74.0376,286.0784,9.9614e-06,-1.29e-06,0.0,0 STARLINK-4008,1 52622U 22052AA  22288.49486905 -.00000129  00000-0  99614-5 0  9992,2 52622  53.2184  96.0594 0001523  74.0376 286.0784 15.08839845 23789,6917.880999999999,95.438,540.799,538.692,0.0
52622.0,STARLINK-4008,PAYLOAD,2022-10-15 18:14:09,15.08838214,0.0001405,53.2182,94.8701,71.0941,289.0203,-7.580899999999999e-05,-1.494e-05,0.0,0 STARLINK-4008,1 52622U 22052AA  22288.75983115 -.00001494  00000-0 -75809-4 0  9992,2 52622  53.2182  94.8701 0001405  71.0941 289.0203 15.08838214 23448,6917.886,95.438,540.7230000000002,538.779,0.0
52622.0,STARLINK-4008,PAYLOAD,2022-10-16 11:43:24,15.08834266,0.0001359,53.2182,91.5997,70.7484,289.3655,-8.9462e-05,-1.711e-05,0.0,0 STARLINK-4008,1 52622U 22052AA  22289.48847394 -.00001711  00000-0 -89462-4 0  9993,2 52622  53.2182  91.5997 0001359  70.7484 289.3655 15.08834266 23936,6917.898,95.438,540.703,538.823,0.0
52622.0,STARLINK-4008,PAYLOAD,2022-10-16 14:54:10,15.08833876,0.000137,53.2184,91.0049,70.8559,289.2581,-0.00014511,-2.596e-05,0.0,0 STARLINK-4008,1 52622U 22052AA  22289.62095461 -.00002596  00000-0 -14511-3 0  9993,2 52622  53.2184  91.0049 0001370  70.8559 289.2581 15.08833876 23571,6917.899,95.438,540.712,538.816,0.0
52622.0,STARLINK-4008,PAYLOAD,2022-10-17 09:58:48,15.08838062,0.0001324,53.2192,87.4364,71.914,288.1996,9.8168e-05,1.275e-05,0.0,0 STARLINK-4008,1 52622U 22052AA  22290.41583607  .00001275  00000-0  98168-4 0  9998,2 52622  53.2192  87.4364 0001324  71.9140 288.1996 15.08838062 23699,6917.886,95.438,540.6669999999998,538.835,0.0
52622.0,STARLINK-4008,PAYLOAD,2022-10-17 17:55:43,15.08843553,0.0001375,53.2194,85.95,70.8939,289.2202,0.00019477,2.813e-05,0.0,0 STARLINK-4008,1 52622U 22052AA  22290.74703197  .00002813  00000-0  19477-3 0  9996,2 52622  53.2194  85.9500 0001375  70.8939 289.2202 15.08843553 24128,6917.87,95.437,540.686,538.783,0.0
52622.0,STARLINK-4008,PAYLOAD,2022-10-17 19:31:06,15.08844188,0.0001376999999999,53.2193,85.6525,71.2204,288.8937,0.00020247,2.936e-05,0.0,0 STARLINK-4008,1 52622U 22052AA  22290.81327184  .00002936  00000-0  20247-3 0  9995,2 52622  53.2193  85.6525 0001377  71.2204 288.8937 15.08844188 23756,6917.868,95.437,540.685,538.78,0.0
52622.0,STARLINK-4008,PAYLOAD,2022-10-18 03:28:03,15.08834319,0.0001511,53.2186,84.1657,69.6935,290.4219,0.00043953,6.713e-05,0.0,0 STARLINK-4008,1 52622U 22052AA  22291.14447964  .00006713  00000-0  43953-3 0  9997,2 52622  53.2186  84.1657 0001511  69.6935 290.4219 15.08834319 24185,6917.898,95.438,540.808,538.717,0.0
52622.0,STARLINK-4008,PAYLOAD,2022-10-18 09:49:35,15.08841515,0.0001375999999999,53.2185,82.9759,69.1362,290.9778,0.00010761,1.425e-05,0.0,0 STARLINK-4008,1 52622U 22052AA  22291.40943416  .00001425  00000-0  10761-3 0  9995,2 52622  53.2185  82.9759 0001376  69.1362 290.9778 15.08841515 23844,6917.876,95.437,540.693,538.789,0.0
52622.0,STARLINK-4008,PAYLOAD,2022-10-19 09:40:22,15.08836703,0.0001516,53.2196,78.5151,69.1937,290.9218,6.0631e-05,6.77e-06,0.0,0 STARLINK-4008,1 52622U 22052AA  22292.40304290  .00000677  00000-0  60631-4 0  9997,2 52622  53.2196  78.5151 0001516  69.1937 290.9218 15.08836703 24378,6917.89,95.438,540.804,538.707,0.0
52622.0,STARLINK-4008,PAYLOAD,2022-10-19 17:37:17,15.08845774,0.0001463,53.2194,77.0287,69.0585,291.0564,4.7007e-05,4.6e-06,0.0,0 STARLINK-4008,1 52622U 22052AA  22292.73423572  .00000460  00000-0  47007-4 0  9990,2 52622  53.2194  77.0287 0001463  69.0585 291.0564 15.08845774 24429,6917.863,95.437,540.74,538.716,0.0
52622.0,STARLINK-4008,PAYLOAD,2022-10-19 20:48:04,15.08847592,0.000147,53.2194,76.4339,69.0085,291.1064,5.7515e-05,6.28e-06,0.0,0 STARLINK-4008,1 52622U 22052AA  22292.86671365  .00000628  00000-0  57515-4 0  9990,2 52622  53.2194  76.4339 0001470  69.0085 291.1064 15.08847592 24069,6917.857,95.437,540.739,538.705,0.0
52622.0,STARLINK-4008,PAYLOAD,2022-10-20 09:31:09,15.08845911,0.0001512,53.2194,74.0553,67.9665,292.1488,-2.8001e-05,-7.34e-06,0.0,0 STARLINK-4008,1 52622U 22052AA  22293.39663500 -.00000734  00000-0 -28001-4 0  9999,2 52622  53.2194  74.0553 0001512  67.9665 292.1488 15.08845911 24142,6917.861999999999,95.437,540.773,538.681,0.0
52622.0,STARLINK-4008,PAYLOAD,2022-10-20 15:52:41,15.08841147,0.0001473,53.2193,72.8656,69.4218,290.6932,6.8715e-05,8.06e-06,0.0,0 STARLINK-4008,1 52622U 22052AA  22293.66159580  .00000806  00000-0  68715-4 0  9991,2 52622  53.2193  72.8656 0001473  69.4218 290.6932 15.08841147 24186,6917.877,95.437,540.761,538.7230000000002,0.0
52622.0,STARLINK-4008,PAYLOAD,2022-10-21 10:57:19,15.08838228,0.0001504,53.2193,69.2976,69.9071,290.2083,7.9705e-05,9.81e-06,0.0,0 STARLINK-4008,1 52622U 22052AA  22294.45647776  .00000981  00000-0  79705-4 0  9993,2 52622  53.2193  69.2976 0001504  69.9071 290.2083 15.08838228 24301,6917.886,95.438,540.7909999999998,538.71,0.0
52622.0,STARLINK-4008,PAYLOAD,2022-10-21 18:54:15,15.08840942,0.0001496999999999,53.2196,67.8112,67.9326,292.1825,2.3029e-05,7.9e-07,0.0,0 STARLINK-4008,1 52622U 22052AA  22294.78767719  .00000079  00000-0  23029-4 0  9995,2 52622  53.2196  67.8112 0001497  67.9326 292.1825 15.08840942 24730,6917.878000000002,95.437,540.778,538.707,0.0
52622.0,STARLINK-4008,PAYLOAD,2022-10-22 12:23:29,15.08840572,0.0001264999999999,53.2218,64.5394,61.2533,298.8587,5.6312e-06,-1.98e-06,0.0,0 STARLINK-4008,1 52622U 22052AA  22295.51631807 -.00000198  00000-0  56312-5 0  9990,2 52622  53.2218  64.5394 0001265  61.2533 298.8587 15.08840572 24468,6917.879,95.438,540.619,538.869,0.0
52622.0,STARLINK-4008,PAYLOAD,2022-10-22 15:34:16,15.08830411,0.0001414,53.22,63.9461,62.738,297.3756,-4.3705e-05,-9.83e-06,0.0,0 STARLINK-4008,1 52622U 22052AA  22295.64880581 -.00000983  00000-0 -43705-4 0  9993,2 52622  53.2200  63.9461 0001414  62.7380 297.3756 15.08830411 24866,6917.91,95.438,540.753,538.797,0.0
52622.0,STARLINK-4008,PAYLOAD,2022-10-22 18:45:03,15.08831047,0.0001486999999999,53.2195,63.3516,67.1955,292.9194,-2.0441e-05,-6.13e-06,0.0,0 STARLINK-4008,1 52622U 22052AA  22295.78128547 -.00000613  00000-0 -20441-4 0  9997,2 52622  53.2195  63.3516 0001487  67.1955 292.9194 15.08831047 24505,6917.908,95.438,540.8009999999998,538.744,0.0
52622.0,STARLINK-4008,PAYLOAD,2022-10-23 09:03:30,15.088428699999998,0.0001474,53.2196,60.6749,63.5806,296.5337,9.1986e-05,1.176e-05,0.0,0 STARLINK-4008,1 52622U 22052AA  22296.37743570  .00001176  00000-0  91986-4 0  9997,2 52622  53.2196  60.6749 0001474  63.5806 296.5337 15.08842870 24971,6917.871999999999,95.437,540.756,538.717,0.0
52622.0,STARLINK-4008,PAYLOAD,2022-10-23 12:14:16,15.08845543,0.0001498,53.2199,60.0803,64.3938,295.7209,0.00012117,1.641e-05,0.0,0 STARLINK-4008,1 52622U 22052AA  22296.50991404  .00001641  00000-0  12117-3 0  9998,2 52622  53.2199  60.0803 0001498  64.3938 295.7209 15.08845543 24610,6917.863,95.437,540.765,538.692,0.0
52622.0,STARLINK-4008,PAYLOAD,2022-10-23 17:00:25,15.08854651,0.0001544,53.2192,59.1879,62.4475,297.6674,0.00025406,3.759e-05,0.0,0 STARLINK-4008,1 52622U 22052AA  22296.70863075  .00003759  00000-0  25406-3 0  9999,2 52622  53.2192  59.1879 0001544  62.4475 297.6674 15.08854651 25025,6917.8359999999975,95.437,540.769,538.632,0.0
52622.0,STARLINK-4008,PAYLOAD,2022-10-24 08:54:17,15.08853537,0.0002456,53.2217,56.219,87.9905,272.1368,0.00017704,2.531e-05,0.0,0 STARLINK-4008,1 52622U 22052AA  22297.37103141  .00002531  00000-0  17704-3 0  9993,2 52622  53.2217  56.2190 0002456  87.9905 272.1368 15.08853537 25121,6917.839,95.437,541.403,538.005,0.0
52622.0,STARLINK-4008,PAYLOAD,2022-10-24 16:51:14,15.08813953,0.0001616,53.2195,54.7278,61.6137,298.5018,-0.00042243,-7e-05,0.0,0 STARLINK-4008,1 52622U 22052AA  22297.70224697 -.00007000  00000-0 -42243-3 0  9994,2 52622  53.2195  54.7278 0001616  61.6137 298.5018 15.08813953 25176,6917.96,95.439,540.943,538.707,0.0
52622.0,STARLINK-4008,PAYLOAD,2022-10-25 00:48:09,15.08821471,0.0001534,53.2195,53.24100000000001,64.7702,295.3449,-0.00032323,-5.426e-05,0.0,0 STARLINK-4008,1 52622U 22052AA  22298.03344584 -.00005426  00000-0 -32323-3 0  9997,2 52622  53.2195  53.2410 0001534  64.7702 295.3449 15.08821471 25222,6917.937,95.439,540.863,538.741,0.0
52622.0,STARLINK-4008,PAYLOAD,2022-10-25 11:55:51,15.08834636,0.0001450999999999,53.2187,51.1588,59.2096,300.9039,0.00045193,6.911e-05,0.0,0 STARLINK-4008,1 52622U 22052AA  22298.49712712  .00006911  00000-0  45193-3 0  9996,2 52622  53.2187  51.1588 0001451  59.2096 300.9039 15.08834636 24919,6917.897,95.438,540.766,538.758,0.0
